SatCatId,ObjectName,LaunchYear,OrbitalPeriod,LaunchMass,StatusCode,Inclination,Status,UcsData,OrbitClassEstimated,LaunchSiteCountry,Owner,UseType,Purpose,LaunchVehicleClass,TLE1,TLE2,MeanMotion,Eccentricity,OrbitClass
49261,CS1,2021,94.72,10.0,+,97.44,Active,1,LEO,USA,USA,Military,Technology Development,Atlas,1 49261U 21088B   25062.10236571  .00012893  00000+0  59471-3 0  9992,2 49261  97.4426 123.4771 0015567 306.7435  53.2370 15.20268924188515,15.20268924,0.0015567,LEO
49262,CS2,2021,94.68,10.0,+,97.45,Active,1,LEO,USA,USA,Military,Technology Development,Atlas,1 49262U 21088C   25062.13191740  .00013184  00000+0  59657-3 0  9994,2 49262  97.4473 124.8377 0012624 312.2026  47.8137 15.20959794188561,15.20959794,0.0012624,LEO
49263,CUTE,2021,93.37,10.0,+,97.46,Active,1,LEO,USA,USA,Government,Space Science,Atlas,1 49263U 21088D   25062.15612309  .00017069  00000+0  39851-3 0  9996,2 49263  97.4609 135.8454 0008730 234.1565 125.8872 15.42234376189238,15.42234376,0.000873,LEO
49264,CUPID,2021,94.91,10.0,+,97.45,Active,1,LEO,USA,USA,Government,Earth Observation,Atlas,1 49264U 21088E   25062.11258996  .00009277  00000+0  46949-3 0  9999,2 49264  97.4521 124.7953 0013557 274.8503  85.1182 15.17155358188548,15.17155358,0.0013557,LEO
49279,ONEWEB-0332,2021,109.55,148.0,+,87.91,Active,1,LEO,Russia,UK,Commercial,Communications,Soyuz,1 49279U 21090A   25062.43015305  .00000142  00000+0  34953-3 0  9992,2 49279  87.9050  23.3195 0002144  84.1176 276.0198 13.14502892165733,13.14502892,0.0002144,LEO
49280,ONEWEB-0347,2021,109.03,148.0,+,87.93,Active,1,LEO,Russia,UK,Commercial,Communications,Soyuz,1 49280U 21090B   25062.36775309  .00000074  00000+0  14992-3 0  9998,2 49280  87.9318   8.1342 0002119  89.8329 270.3047 13.20771204168893,13.20771204,0.0002119,LEO
49281,ONEWEB-0349,2021,109.03,148.0,+,87.93,Active,1,LEO,Russia,UK,Commercial,Communications,Soyuz,1 49281U 21090C   25062.39932016  .00000125  00000+0  27543-3 0  9995,2 49281  87.9322   8.1318 0001929  83.5390 276.5963 13.20772121167689,13.20772121,0.0001929,LEO
49282,ONEWEB-0353,2021,109.55,148.0,+,87.9,Active,1,LEO,Russia,UK,Commercial,Communications,Soyuz,1 49282U 21090D   25062.42222259  .00000233  00000+0  59367-3 0  9990,2 49282  87.9049  23.3072 0002125  86.3358 273.8015 13.14504054165739,13.14504054,0.0002125,LEO
49283,ONEWEB-0356,2021,109.03,148.0,+,87.93,Active,1,LEO,Russia,UK,Commercial,Communications,Soyuz,1 49283U 21090E   25062.39774049  .00000148  00000+0  33156-3 0  9999,2 49283  87.9319   8.1241 0001451 110.4259 249.7031 13.20773108167680,13.20773108,0.0001451,LEO
49284,ONEWEB-0358,2021,109.03,148.0,+,87.93,Active,1,LEO,Russia,UK,Commercial,Communications,Soyuz,1 49284U 21090F   25062.35197033  .00000108  00000+0  23396-3 0  9999,2 49284  87.9319   8.1225 0001656  81.4175 278.7146 13.20771530168401,13.2077153,0.0001656,LEO
49285,ONEWEB-0359,2021,109.03,148.0,+,87.93,Active,1,LEO,Russia,UK,Commercial,Communications,Soyuz,1 49285U 21090G   25062.80335498  .00000050  00000+0  90344-4 0  9993,2 49285  87.9319   8.0469 0001613  68.8561 291.2745 13.20771338169729,13.20771338,0.0001613,LEO
49286,ONEWEB-0360,2021,109.03,148.0,+,87.93,Active,1,LEO,Russia,UK,Commercial,Communications,Soyuz,1 49286U 21090H   25062.33934065  .00000106  00000+0  22892-3 0  9991,2 49286  87.9318   8.1444 0001790  75.6228 284.5104 13.20770828167696,13.20770828,0.000179,LEO
49287,ONEWEB-0361,2021,109.03,148.0,+,87.93,Active,1,LEO,Russia,UK,Commercial,Communications,Soyuz,1 49287U 21090J   25062.39616104  .00000156  00000+0  35228-3 0  9991,2 49287  87.9320   8.1283 0001794  84.4869 275.6469 13.20773099168154,13.20773099,0.0001794,LEO
49288,ONEWEB-0362,2021,109.11,148.0,+,87.92,Active,1,LEO,Russia,UK,Commercial,Communications,Soyuz,1 49288U 21090K   25062.43078059  .00000093  00000+0  20011-3 0  9992,2 49288  87.9187  38.5536 0002022  77.7159 282.4200 13.19725870164827,13.1972587,0.0002022,LEO
49289,ONEWEB-0363,2021,109.03,148.0,+,87.93,Active,1,LEO,Russia,UK,Commercial,Communications,Soyuz,1 49289U 21090L   25062.33618398  .00000180  00000+0  40974-3 0  9995,2 49289  87.9318   8.1350 0001510  89.3739 270.7567 13.20771140168154,13.2077114,0.000151,LEO
49290,ONEWEB-0364,2021,109.03,148.0,+,87.93,Active,1,LEO,Russia,UK,Commercial,Communications,Soyuz,1 49290U 21090M   25062.37405861  .00000082  00000+0  16892-3 0  9993,2 49290  87.9322   8.1564 0001813  85.8863 274.2478 13.20770055169293,13.20770055,0.0001813,LEO
49291,ONEWEB-0365,2021,109.11,148.0,+,87.92,Active,1,LEO,Russia,UK,Commercial,Communications,Soyuz,1 49291U 21090N   25062.44024830  .00000067  00000+0  13576-3 0  9994,2 49291  87.9179  38.5150 0002018  83.8665 276.2698 13.19726093164335,13.19726093,0.0002018,LEO
49292,ONEWEB-0366,2021,109.55,148.0,+,87.91,Active,1,LEO,Russia,UK,Commercial,Communications,Soyuz,1 49292U 21090P   25062.41903300  .00000326  00000+0  84438-3 0  9993,2 49292  87.9051  23.3193 0001815  84.3665 275.7672 13.14505205165718,13.14505205,0.0001815,LEO
49293,ONEWEB-0367,2021,109.03,148.0,+,87.93,Active,1,LEO,Russia,UK,Commercial,Communications,Soyuz,1 49293U 21090Q   25062.33461013  .00000143  00000+0  32000-3 0  9990,2 49293  87.9319   8.1306 0001990  80.6573 279.4785 13.20771506167673,13.20771506,0.000199,LEO
49294,ONEWEB-0368,2021,109.03,148.0,+,87.93,Active,1,LEO,Russia,UK,Commercial,Communications,Soyuz,1 49294U 21090R   25062.38353728  .00000046  00000+0  81519-4 0  9991,2 49294  87.9320   8.1533 0002222 102.9391 257.1991 13.20771949168835,13.20771949,0.0002222,LEO
49295,ONEWEB-0369,2021,109.11,148.0,+,87.92,Active,1,LEO,Russia,UK,Commercial,Communications,Soyuz,1 49295U 21090S   25062.43549541 -.00000055  00000+0 -17035-3 0  9991,2 49295  87.9186  38.5368 0002006  85.3964 274.7398 13.19724173164320,13.19724173,0.0002006,LEO
49296,ONEWEB-0370,2021,109.03,148.0,+,87.93,Active,1,LEO,Russia,UK,Commercial,Communications,Soyuz,1 49296U 21090T   25062.34407816  .00000089  00000+0  18706-3 0  9991,2 49296  87.9319   8.1337 0001926  69.2088 290.9251 13.20771222167719,13.20771222,0.0001926,LEO
49297,ONEWEB-0371,2021,109.11,148.0,+,87.92,Active,1,LEO,Russia,UK,Commercial,Communications,Soyuz,1 49297U 21090U   25062.44340550  .00000071  00000+0  14504-3 0  9997,2 49297  87.9186  38.5250 0001991  81.7782 278.3576 13.19724841164366,13.19724841,0.0001991,LEO
49298,ONEWEB-0372,2021,109.03,148.0,+,87.93,Active,1,LEO,Russia,UK,Commercial,Communications,Soyuz,1 49298U 21090V   25062.33287259  .00001794  00000+0  43783-2 0  9995,2 49298  87.9318   8.1451 0002053  81.9200 278.2167 13.20783858167685,13.20783858,0.0002053,LEO
49299,ONEWEB-0373,2021,109.03,148.0,+,87.93,Active,1,LEO,Russia,UK,Commercial,Communications,Soyuz,1 49299U 21090W   25062.81440188 -.00000010  00000+0 -56127-4 0  9991,2 49299  87.9319   8.0622 0001713  86.2883 273.8446 13.20771121170239,13.20771121,0.0001713,LEO
49300,ONEWEB-0374,2021,109.55,148.0,+,87.9,Active,1,LEO,Russia,UK,Commercial,Communications,Soyuz,1 49300U 21090X   25062.40634104  .00000278  00000+0  71599-3 0  9995,2 49300  87.9047  23.3037 0001733  99.6795 260.4531 13.14506360165710,13.1450636,0.0001733,LEO
49301,ONEWEB-0375,2021,109.03,148.0,+,87.93,Active,1,LEO,Russia,UK,Commercial,Communications,Soyuz,1 49301U 21090Y   25062.34723249  .00000091  00000+0  19246-3 0  9992,2 49301  87.9319   8.1322 0001262  91.5601 268.5676 13.20771136168371,13.20771136,0.0001262,LEO
49302,ONEWEB-0376,2021,109.11,148.0,+,87.92,Active,1,LEO,Russia,UK,Commercial,Communications,Soyuz,1 49302U 21090Z   25062.44182491  .00000075  00000+0  15551-3 0  9999,2 49302  87.9180  38.5168 0002161  84.6278 275.5101 13.19724214164364,13.19724214,0.0002161,LEO
49303,ONEWEB-0377,2021,109.03,148.0,+,87.93,Active,1,LEO,Russia,UK,Commercial,Communications,Soyuz,1 49303U 21090AA  25062.33315594 -.00001099  00000+0 -27343-2 0  9990,2 49303  87.9314   8.1268 0001659  73.4319 286.6996 13.20781151168365,13.20781151,0.0001659,LEO
49304,ONEWEB-0378,2021,109.03,148.0,+,87.93,Active,1,LEO,Russia,UK,Commercial,Communications,Soyuz,1 49304U 21090AB  25062.35526614  .00002866  00000+0  70170-2 0  9997,2 49304  87.9320   8.1292 0002069  81.7373 278.3995 13.20758072167630,13.20758072,0.0002069,LEO
49305,ONEWEB-0379,2021,109.55,148.0,+,87.9,Active,1,LEO,Russia,UK,Commercial,Communications,Soyuz,1 49305U 21090AC  25062.40159750  .00000180  00000+0  45060-3 0  9995,2 49305  87.9048  23.3087 0001921  84.9358 275.1991 13.14506406165716,13.14506406,0.0001921,LEO
49306,ONEWEB-0380,2021,109.11,148.0,+,87.92,Active,1,LEO,Russia,UK,Commercial,Communications,Soyuz,1 49306U 21090AD  25062.43866232  .00000112  00000+0  24721-3 0  9995,2 49306  87.9186  38.5385 0001701  84.1527 275.9799 13.19724120164336,13.1972412,0.0001701,LEO
49307,ONEWEB-0381,2021,109.03,148.0,+,87.93,Active,1,LEO,Russia,UK,Commercial,Communications,Soyuz,1 49307U 21090AE  25062.40562281  .00000153  00000+0  34516-3 0  9998,2 49307  87.9322   8.1208 0001716  78.5395 281.5931 13.20769930167684,13.2076993,0.0001716,LEO
49308,ONEWEB-0382,2021,109.03,148.0,+,87.93,Active,1,LEO,Russia,UK,Commercial,Communications,Soyuz,1 49308U 21090AF  25062.39300274  .00000100  00000+0  21310-3 0  9999,2 49308  87.9319   8.1186 0001660  91.5946 268.5377 13.20770869167672,13.20770869,0.000166,LEO
49309,ONEWEB-0383,2021,109.55,148.0,+,87.9,Active,1,LEO,Russia,UK,Commercial,Communications,Soyuz,1 49309U 21090AG  25062.39525466  .00000074  00000+0  16470-3 0  9993,2 49309  87.9046  23.2926 0001875  87.6087 272.5257 13.14502986165744,13.14502986,0.0001875,LEO
49310,ONEWEB-0384,2021,109.03,148.0,+,87.93,Active,1,LEO,Russia,UK,Commercial,Communications,Soyuz,1 49310U 21090AH  25062.84434163 -.00001848  00000+0 -45766-2 0  9999,2 49310  87.9324   8.0447 0001612  91.3012 268.8306 13.20783290169050,13.2078329,0.0001612,LEO
